{"type": "FeatureCollection", "features": [ {"type": "Feature", "properties": {"norad_id": 30096, "name": "FENGYUN 1C DEB", "group": "fengyun-1c-debris", "lat": -31.75104753034469, "lon": -105.03574626771376, "alt_km": 738.343985455359, "timestamp": "2025-12-26T16:33:55.845697+00:00", "meta": {"OBJECT_NAME": "FENGYUN 1C DEB", "OBJECT_ID": "1999-025QZ", "EPOCH": "2025-12-25T17:46:26.194080", "MEAN_MOTION": 14.31714216, "ECCENTRICITY": 0.00797123, "INCLINATION": 99.1465, "RA_OF_ASC_NODE": 79.6862, "ARG_OF_PERICENTER": 194.6634, "MEAN_ANOMALY": 165.2235, "EPHEMERIS_TYPE": 0, "CLASSIFICATION_TYPE": "U", "NORAD_CAT_ID": 30096, "ELEMENT_SET_NO": 999, "REV_AT_EPOCH": 98732, "BSTAR": 0.00032708673, "MEAN_MOTION_DOT": 8.55e-06, "MEAN_MOTION_DDOT": 0}, "tle": {"line1": "1 30096U 99025QZ  25359.74058095  .00000855  00000+0  32709-3 0  9996", "line2": "2 30096  99.1465  79.6862 0079712 194.6634 165.2235 14.31714216987324"}}, "geometry": {"type": "Point", "coordinates": [-105.03574626771376, -31.75104753034469]}}, {"type": "Feature", "properties": {"norad_id": 30099, "name": "FENGYUN 1C DEB", "group": "fengyun-1c-debris", "lat": 16.05868450553581, "lon": -104.87847499988615, "alt_km": 771.8105691703331, "timestamp": "2025-12-26T16:33:55.845706+00:00", "meta": {"OBJECT_NAME": "FENGYUN 1C DEB", "OBJECT_ID": "1999-025RC", "EPOCH": "2025-12-26T04:15:59.315904", "MEAN_MOTION": 14.25956487, "ECCENTRICITY": 0.00617202, "INCLINATION": 98.5389, "RA_OF_ASC_NODE": 72.1435, "ARG_OF_PERICENTER": 205.1274, "MEAN_ANOMALY": 209.7851, "EPHEMERIS_TYPE": 0, "CLASSIFICATION_TYPE": "U", "NORAD_CAT_ID": 30099, "ELEMENT_SET_NO": 999, "REV_AT_EPOCH": 98381, "BSTAR": 0.0002919023, "MEAN_MOTION_DOT": 6.67e-06, "MEAN_MOTION_DDOT": 0}, "tle": {"line1": "1 30099U 99025RC  25360.17776986  .00000667  00000+0  29190-3 0  9995", "line2": "2 30099  98.5389  72.1435 0061720 205.1274 209.7851 14.25956487983816"}}, "geometry": {"type": "Point", "coordinates": [-104.87847499988615, 16.05868450553581]}}, {"type": "Feature", "properties": {"norad_id": 30102, "name": "FENGYUN 1C DEB", "group": "fengyun-1c-debris", "lat": 24.305687955021252, "lon": -168.40419467594847, "alt_km": 914.8625362142457, "timestamp": "2025-12-26T16:33:55.845715+00:00", "meta": {"OBJECT_NAME": "FENGYUN 1C DEB", "OBJECT_ID": "1999-025RF", "EPOCH": "2025-12-26T07:26:46.166784", "MEAN_MOTION": 14.22149981, "ECCENTRICITY": 0.01409436, "INCLINATION": 98.3791, "RA_OF_ASC_NODE": 7.4178, "ARG_OF_PERICENTER": 320.4955, "MEAN_ANOMALY": 51.0101, "EPHEMERIS_TYPE": 0, "CLASSIFICATION_TYPE": "U", "NORAD_CAT_ID": 30102, "ELEMENT_SET_NO": 999, "REV_AT_EPOCH": 98151, "BSTAR": 0.00029943596, "MEAN_MOTION_DOT": 6.92e-06, "MEAN_MOTION_DDOT": 0}, "tle": {"line1": "1 30102U 99025RF  25360.31025656  .00000692  00000+0  29944-3 0  9992", "line2": "2 30102  98.3791   7.4178 0140943 320.4955  51.0101 14.22149981981514"}}, "geometry": {"type": "Point", "coordinates": [-168.40419467594847, 24.305687955021252]}}, {"type": "Feature", "properties": {"norad_id": 30103, "name": "FENGYUN 1C DEB", "group": "fengyun-1c-debris", "lat": -64.79951852901144, "lon": 3.1569431394452314, "alt_km": 854.7014453068696, "timestamp": "2025-12-26T16:33:55.845724+00:00", "meta": {"OBJECT_NAME": "FENGYUN 1C DEB", "OBJECT_ID": "1999-025RG", "EPOCH": "2025-12-25T22:35:39.323040", "MEAN_MOTION": 14.24885076, "ECCENTRICITY": 0.006431, "INCLINATION": 99.2462, "RA_OF_ASC_NODE": 342.1158, "ARG_OF_PERICENTER": 82.6768, "MEAN_ANOMALY": 332.4134, "EPHEMERIS_TYPE": 0, "CLASSIFICATION_TYPE": "U", "NORAD_CAT_ID": 30103, "ELEMENT_SET_NO": 999, "REV_AT_EPOCH": 98107, "BSTAR": 0.00044108, "MEAN_MOTION_DOT": 1.004e-05, "MEAN_MOTION_DDOT": 0}, "tle": {"line1": "1 30103U 99025RG  25359.94142735  .00001004  00000+0  44108-3 0  9995", "line2": "2 30103  99.2462 342.1158 0064310  82.6768 332.4134 14.24885076981076"}}, "geometry": {"type": "Point", "coordinates": [3.1569431394452314, -64.79951852901144]}}, {"type": "Feature", "properties": {"norad_id": 30104, "name": "FENGYUN 1C DEB", "group": "fengyun-1c-debris", "lat": -1.5523773431510324, "lon": 16.886930521550983, "alt_km": 830.5113277932242, "timestamp": "2025-12-26T16:33:55.845733+00:00", "meta": {"OBJECT_NAME": "FENGYUN 1C DEB", "OBJECT_ID": "1999-025RH", "EPOCH": "2025-12-26T01:16:00.829632", "MEAN_MOTION": 14.25707923, "ECCENTRICITY": 0.00741325, "INCLINATION": 98.3595, "RA_OF_ASC_NODE": 196.5073, "ARG_OF_PERICENTER": 69.3986, "MEAN_ANOMALY": 81.4405, "EPHEMERIS_TYPE": 0, "CLASSIFICATION_TYPE": "U", "NORAD_CAT_ID": 30104, "ELEMENT_SET_NO": 999, "REV_AT_EPOCH": 98082, "BSTAR": 0.00063366522, "MEAN_MOTION_DOT": 1.507e-05, "MEAN_MOTION_DDOT": 0}, "tle": {"line1": "1 30104U 99025RH  25360.05278738  .00001507  00000+0  63367-3 0  9999", "line2": "2 30104  98.3595 196.5073 0074132  69.3986  81.4405 14.25707923980827"}}, "geometry": {"type": "Point", "coordinates": [16.886930521550983, -1.5523773431510324]}}, {"type": "Feature", "properties": {"norad_id": 30105, "name": "FENGYUN 1C DEB", "group": "fengyun-1c-debris", "lat": 74.26190093251527, "lon": -46.08469897776248, "alt_km": 707.2566853232674, "timestamp": "2025-12-26T16:33:55.845742+00:00", "meta": {"OBJECT_NAME": "FENGYUN 1C DEB", "OBJECT_ID": "1999-025RJ", "EPOCH": "2025-12-25T09:48:36.374976", "MEAN_MOTION": 14.21423843, "ECCENTRICITY": 0.0199467, "INCLINATION": 98.5948, "RA_OF_ASC_NODE": 345.1249, "ARG_OF_PERICENTER": 37.3974, "MEAN_ANOMALY": 324.0896, "EPHEMERIS_TYPE": 0, "CLASSIFICATION_TYPE": "U", "NORAD_CAT_ID": 30105, "ELEMENT_SET_NO": 999, "REV_AT_EPOCH": 97942, "BSTAR": 0.00042226, "MEAN_MOTION_DOT": 1.084e-05, "MEAN_MOTION_DDOT": 0}, "tle": {"line1": "1 30105U 99025RJ  25359.40875434  .00001084  00000+0  42226-3 0  9994", "line2": "2 30105  98.5948 345.1249 0199467  37.3974 324.0896 14.21423843979426"}}, "geometry": {"type": "Point", "coordinates": [-46.08469897776248, 74.26190093251527]}}, {"type": "Feature", "properties": {"norad_id": 30106, "name": "FENGYUN 1C DEB", "group": "fengyun-1c-debris", "lat": 38.325711806295864, "lon": -97.42251951272081, "alt_km": 619.5152874746555, "timestamp": "2025-12-26T16:33:55.845752+00:00", "meta": {"OBJECT_NAME": "FENGYUN 1C DEB", "OBJECT_ID": "1999-025RK", "EPOCH": "2025-12-25T18:02:22.631712", "MEAN_MOTION": 14.86051999, "ECCENTRICITY": 0.00475862, "INCLINATION": 98.9238, "RA_OF_ASC_NODE": 268.6604, "ARG_OF_PERICENTER": 153.9277, "MEAN_ANOMALY": 267.2196, "EPHEMERIS_TYPE": 0, "CLASSIFICATION_TYPE": "U", "NORAD_CAT_ID": 30106, "ELEMENT_SET_NO": 999, "REV_AT_EPOCH": 98738, "BSTAR": 0.0042409187, "MEAN_MOTION_DOT": 0.00038001, "MEAN_MOTION_DDOT": 0}, "tle": {"line1": "1 30106U 99025RK  25359.75165083  .00038001  00000+0  42409-2 0  9996", "line2": "2 30106  98.9238 268.6604 0047586 153.9277 267.2196 14.86051999987387"}}, "geometry": {"type": "Point", "coordinates": [-97.42251951272081, 38.325711806295864]}}, {"type": "Feature", "properties": {"norad_id": 30107, "name": "FENGYUN 1C DEB", "group": "fengyun-1c-debris", "lat": -4.9852909999456765, "lon": 58.257848780330825, "alt_km": 891.7684654495424, "timestamp": "2025-12-26T16:33:55.845761+00:00", "meta": {"OBJECT_NAME": "FENGYUN 1C DEB", "OBJECT_ID": "1999-025RL", "EPOCH": "2025-12-26T03:00:27.217728", "MEAN_MOTION": 14.14430218, "ECCENTRICITY": 0.01265744, "INCLINATION": 98.845, "RA_OF_ASC_NODE": 56.9201, "ARG_OF_PERICENTER": 237.2866, "MEAN_ANOMALY": 121.6052, "EPHEMERIS_TYPE": 0, "CLASSIFICATION_TYPE": "U", "NORAD_CAT_ID": 30107, "ELEMENT_SET_NO": 999, "REV_AT_EPOCH": 97750, "BSTAR": 0.00013604434, "MEAN_MOTION_DOT": 2.36e-06, "MEAN_MOTION_DDOT": 0}, "tle": {"line1": "1 30107U 99025RL  25360.12531502  .00000236  00000+0  13604-3 0  9998", "line2": "2 30107  98.8450  56.9201 0126574 237.2866 121.6052 14.14430218977502"}}, "geometry": {"type": "Point", "coordinates": [58.257848780330825, -4.9852909999456765]}}, {"type": "Feature", "properties": {"norad_id": 30108, "name": "FENGYUN 1C DEB", "group": "fengyun-1c-debris", "lat": 36.61095740825828, "lon": -20.310518072241138, "alt_km": 749.0058356469481, "timestamp": "2025-12-26T16:33:55.845770+00:00", "meta": {"OBJECT_NAME": "FENGYUN 1C DEB", "OBJECT_ID": "1999-025RM", "EPOCH": "2025-12-26T04:49:04.055232", "MEAN_MOTION": 14.17198868, "ECCENTRICITY": 0.01969045, "INCLINATION": 98.6615, "RA_OF_ASC_NODE": 345.715, "ARG_OF_PERICENTER": 343.5311, "MEAN_ANOMALY": 75.9051, "EPHEMERIS_TYPE": 0, "CLASSIFICATION_TYPE": "U", "NORAD_CAT_ID": 30108, "ELEMENT_SET_NO": 999, "REV_AT_EPOCH": 97789, "BSTAR": 0.00042030576, "MEAN_MOTION_DOT": 9.8e-06, "MEAN_MOTION_DDOT": 0}, "tle": {"line1": "1 30108U 99025RM  25360.20074138  .00000980  00000+0  42031-3 0  9997", "line2": "2 30108  98.6615 345.7150 0196904 343.5311  75.9051 14.17198868977893"}}, "geometry": {"type": "Point", "coordinates": [-20.310518072241138, 36.61095740825828]}}, {"type": "Feature", "properties": {"norad_id": 30109, "name": "FENGYUN 1C DEB", "group": "fengyun-1c-debris", "lat": 15.74636519780552, "lon": 176.03755594887798, "alt_km": 726.9168994092715, "timestamp": "2025-12-26T16:33:55.845779+00:00", "meta": {"OBJECT_NAME": "FENGYUN 1C DEB", "OBJECT_ID": "1999-025RN", "EPOCH": "2025-12-25T23:06:46.625760", "MEAN_MOTION": 14.17568162, "ECCENTRICITY": 0.0167816, "INCLINATION": 98.5087, "RA_OF_ASC_NODE": 352.9216, "ARG_OF_PERICENTER": 194.0476, "MEAN_ANOMALY": 221.8766, "EPHEMERIS_TYPE": 0, "CLASSIFICATION_TYPE": "U", "NORAD_CAT_ID": 30109, "ELEMENT_SET_NO": 999, "REV_AT_EPOCH": 97739, "BSTAR": 0.00028249, "MEAN_MOTION_DOT": 6.17e-06, "MEAN_MOTION_DDOT": 0}, "tle": {"line1": "1 30109U 99025RN  25359.96303965  .00000617  00000+0  28249-3 0  9994", "line2": "2 30109  98.5087 352.9216 0167816 194.0476 221.8766 14.17568162977398"}}, "geometry": {"type": "Point", "coordinates": [176.03755594887798, 15.74636519780552]}}]}